{"type": "FeatureCollection", "features": [ {"type": "Feature", "properties": {"norad_id": 17070, "name": "POLAR BEAR", "group": "nnss", "lat": -85.40310058605797, "lon": 8.387495051235758, "alt_km": 1016.2301814004168, "timestamp": "2025-12-16T15:45:51.314411+00:00", "meta": {"OBJECT_NAME": "POLAR BEAR", "OBJECT_ID": "1986-088A", "EPOCH": "2025-12-15T23:19:03.571968", "MEAN_MOTION": 13.75251392, "ECCENTRICITY": 0.00411433, "INCLINATION": 89.6171, "RA_OF_ASC_NODE": 183.6444, "ARG_OF_PERICENTER": 109.9221, "MEAN_ANOMALY": 4.6435, "EPHEMERIS_TYPE": 0, "CLASSIFICATION_TYPE": "U", "NORAD_CAT_ID": 17070, "ELEMENT_SET_NO": 999, "REV_AT_EPOCH": 96023, "BSTAR": 0.00011463192, "MEAN_MOTION_DOT": 1.22e-06, "MEAN_MOTION_DDOT": 0}, "tle": {"line1": "1 17070U 86088A   25349.97156912  .00000122  00000+0  11463-3 0  9990", "line2": "2 17070  89.6171 183.6444 0041143 109.9221   4.6435 13.75251392960236"}}, "geometry": {"type": "Point", "coordinates": [8.387495051235758, -85.40310058605797]}}, {"type": "Feature", "properties": {"norad_id": 18361, "name": "OSCAR 27", "group": "nnss", "lat": 85.65026253102616, "lon": -95.65241456070845, "alt_km": 1119.3764570793146, "timestamp": "2025-12-16T15:45:51.314422+00:00", "meta": {"OBJECT_NAME": "OSCAR 27", "OBJECT_ID": "1987-080A", "EPOCH": "2025-12-15T19:38:49.895520", "MEAN_MOTION": 13.44907297, "ECCENTRICITY": 0.01031442, "INCLINATION": 90.3742, "RA_OF_ASC_NODE": 79.3876, "ARG_OF_PERICENTER": 214.9016, "MEAN_ANOMALY": 144.534, "EPHEMERIS_TYPE": 0, "CLASSIFICATION_TYPE": "U", "NORAD_CAT_ID": 18361, "ELEMENT_SET_NO": 999, "REV_AT_EPOCH": 87598, "BSTAR": 0.00014323582, "MEAN_MOTION_DOT": 9.5e-07, "MEAN_MOTION_DDOT": 0}, "tle": {"line1": "1 18361U 87080A   25349.81863305  .00000095  00000+0  14324-3 0  9999", "line2": "2 18361  90.3742  79.3876 0103144 214.9016 144.5340 13.44907297875986"}}, "geometry": {"type": "Point", "coordinates": [-95.65241456070845, 85.65026253102616]}}, {"type": "Feature", "properties": {"norad_id": 18362, "name": "OSCAR 29", "group": "nnss", "lat": 79.70278646361673, "lon": -98.05456319221416, "alt_km": 1140.6154153218458, "timestamp": "2025-12-16T15:45:51.314432+00:00", "meta": {"OBJECT_NAME": "OSCAR 29", "OBJECT_ID": "1987-080B", "EPOCH": "2025-12-15T20:13:04.156608", "MEAN_MOTION": 13.44448966, "ECCENTRICITY": 0.01040884, "INCLINATION": 90.3753, "RA_OF_ASC_NODE": 79.8475, "ARG_OF_PERICENTER": 238.1582, "MEAN_ANOMALY": 243.4079, "EPHEMERIS_TYPE": 0, "CLASSIFICATION_TYPE": "U", "NORAD_CAT_ID": 18362, "ELEMENT_SET_NO": 999, "REV_AT_EPOCH": 87551, "BSTAR": 0.00013104868, "MEAN_MOTION_DOT": 8.6e-07, "MEAN_MOTION_DDOT": 0}, "tle": {"line1": "1 18362U 87080B   25349.84240922  .00000086  00000+0  13105-3 0  9993", "line2": "2 18362  90.3753  79.8475 0104088 238.1582 243.4079 13.44448966875513"}}, "geometry": {"type": "Point", "coordinates": [-98.05456319221416, 79.70278646361673]}}, {"type": "Feature", "properties": {"norad_id": 19070, "name": "OSCAR 23", "group": "nnss", "lat": 1.2546592264565144, "lon": 16.507182588188872, "alt_km": 1297.4570011145843, "timestamp": "2025-12-16T15:45:51.314442+00:00", "meta": {"OBJECT_NAME": "OSCAR 23", "OBJECT_ID": "1988-033A", "EPOCH": "2025-12-15T23:48:10.080576", "MEAN_MOTION": 13.27787567, "ECCENTRICITY": 0.01897956, "INCLINATION": 90.321, "RA_OF_ASC_NODE": 16.4935, "ARG_OF_PERICENTER": 170.8855, "MEAN_ANOMALY": 253.79, "EPHEMERIS_TYPE": 0, "CLASSIFICATION_TYPE": "U", "NORAD_CAT_ID": 19070, "ELEMENT_SET_NO": 999, "REV_AT_EPOCH": 82296, "BSTAR": 0.00017184691, "MEAN_MOTION_DOT": 9.4e-07, "MEAN_MOTION_DDOT": 0}, "tle": {"line1": "1 19070U 88033A   25349.99178334  .00000094  00000+0  17185-3 0  9993", "line2": "2 19070  90.3210  16.4935 0189795 170.8855 253.7900 13.27787567822961"}}, "geometry": {"type": "Point", "coordinates": [16.507182588188872, 1.2546592264565144]}}, {"type": "Feature", "properties": {"norad_id": 19071, "name": "OSCAR 32", "group": "nnss", "lat": 66.9092848065177, "lon": -162.59906234272796, "alt_km": 1042.6934245067687, "timestamp": "2025-12-16T15:45:51.314452+00:00", "meta": {"OBJECT_NAME": "OSCAR 32", "OBJECT_ID": "1988-033B", "EPOCH": "2025-12-15T20:09:59.930208", "MEAN_MOTION": 13.27954373, "ECCENTRICITY": 0.01886062, "INCLINATION": 90.3215, "RA_OF_ASC_NODE": 16.6209, "ARG_OF_PERICENTER": 158.1904, "MEAN_ANOMALY": 14.8759, "EPHEMERIS_TYPE": 0, "CLASSIFICATION_TYPE": "U", "NORAD_CAT_ID": 19071, "ELEMENT_SET_NO": 999, "REV_AT_EPOCH": 82306, "BSTAR": 0.00012723167, "MEAN_MOTION_DOT": 7.3e-07, "MEAN_MOTION_DDOT": 0}, "tle": {"line1": "1 19071U 88033B   25349.84027697  .00000073  00000+0  12723-3 0  9993", "line2": "2 19071  90.3215  16.6209 0188606 158.1904  14.8759 13.27954373823068"}}, "geometry": {"type": "Point", "coordinates": [-162.59906234272796, 66.9092848065177]}}, {"type": "Feature", "properties": {"norad_id": 19223, "name": "NOVA 2", "group": "nnss", "lat": -60.8472501795185, "lon": -101.70939482233516, "alt_km": 1193.9812109930026, "timestamp": "2025-12-16T15:45:51.314462+00:00", "meta": {"OBJECT_NAME": "NOVA 2", "OBJECT_ID": "1988-052A", "EPOCH": "2025-12-15T19:10:57.144864", "MEAN_MOTION": 13.22936219, "ECCENTRICITY": 0.00303283, "INCLINATION": 89.9872, "RA_OF_ASC_NODE": 78.2687, "ARG_OF_PERICENTER": 8.5591, "MEAN_ANOMALY": 110.632, "EPHEMERIS_TYPE": 0, "CLASSIFICATION_TYPE": "U", "NORAD_CAT_ID": 19223, "ELEMENT_SET_NO": 999, "REV_AT_EPOCH": 80988, "BSTAR": 6.0924768e-05, "MEAN_MOTION_DOT": 3.4e-07, "MEAN_MOTION_DDOT": 0}, "tle": {"line1": "1 19223U 88052A   25349.79927251  .00000034  00000+0  60925-4 0  9997", "line2": "2 19223  89.9872  78.2687 0030328   8.5591 110.6320 13.22936219809888"}}, "geometry": {"type": "Point", "coordinates": [-101.70939482233516, -60.8472501795185]}}, {"type": "Feature", "properties": {"norad_id": 19419, "name": "OSCAR 25", "group": "nnss", "lat": -54.57981585033889, "lon": -159.79131226299862, "alt_km": 1035.8748672299407, "timestamp": "2025-12-16T15:45:51.314483+00:00", "meta": {"OBJECT_NAME": "OSCAR 25", "OBJECT_ID": "1988-074A", "EPOCH": "2025-12-15T14:25:09.350688", "MEAN_MOTION": 13.42623837, "ECCENTRICITY": 0.00945776, "INCLINATION": 90.0345, "RA_OF_ASC_NODE": 20.2536, "ARG_OF_PERICENTER": 237.5424, "MEAN_ANOMALY": 295.6614, "EPHEMERIS_TYPE": 0, "CLASSIFICATION_TYPE": "U", "NORAD_CAT_ID": 19419, "ELEMENT_SET_NO": 999, "REV_AT_EPOCH": 82678, "BSTAR": 0.00017678292, "MEAN_MOTION_DOT": 1.11e-06, "MEAN_MOTION_DDOT": 0}, "tle": {"line1": "1 19419U 88074A   25349.60080267  .00000111  00000+0  17678-3 0  9997", "line2": "2 19419  90.0345  20.2536 0094577 237.5424 295.6614 13.42623837826787"}}, "geometry": {"type": "Point", "coordinates": [-159.79131226299862, -54.57981585033889]}}, {"type": "Feature", "properties": {"norad_id": 19420, "name": "OSCAR 31", "group": "nnss", "lat": 63.21073980113459, "lon": -159.320349013189, "alt_km": 1118.9625764234543, "timestamp": "2025-12-16T15:45:51.314502+00:00", "meta": {"OBJECT_NAME": "OSCAR 31", "OBJECT_ID": "1988-074B", "EPOCH": "2025-12-15T20:22:15.780864", "MEAN_MOTION": 13.42585028, "ECCENTRICITY": 0.00929242, "INCLINATION": 90.0362, "RA_OF_ASC_NODE": 20.605, "ARG_OF_PERICENTER": 230.9572, "MEAN_ANOMALY": 303.5278, "EPHEMERIS_TYPE": 0, "CLASSIFICATION_TYPE": "U", "NORAD_CAT_ID": 19420, "ELEMENT_SET_NO": 999, "REV_AT_EPOCH": 82692, "BSTAR": 0.00013905843, "MEAN_MOTION_DOT": 8.9e-07, "MEAN_MOTION_DDOT": 0}, "tle": {"line1": "1 19420U 88074B   25349.84879376  .00000089  00000+0  13906-3 0  9996", "line2": "2 19420  90.0362  20.6050 0092924 230.9572 303.5278 13.42585028826928"}}, "geometry": {"type": "Point", "coordinates": [-159.320349013189, 63.21073980113459]}}]}